STARLINK-34632          
1 64792U 25150C   26068.61212456  .00003352  00000+0  28859-3 0  9997
2 64792  70.0018 134.5967 0003624 272.7438  87.3306 14.98333403 36508
ION SCV-022             
1 66682U 25276S   26068.74520243  .00001950  00000+0  17277-3 0  9990
2 66682  97.5376 142.9780 0004539 154.7099 205.4346 14.97347265 15192
